#dP2019 07 18 00 00 00.00000000     289 RAW   IGSR3 FIT  TUG
## 2062 345600.00000000   300.00000000 58682 0.0000000000000
+   78   G01G02G03G05G06G07G08G09G10G11G12G13G14G15G16G17G18
+        G19G20G21G22G23G24G25G26G27G28G29G30G31G32R01R02R03
+        R04R05R07R08R09R10R11R12R13R14R15R16R17R18R19R20R21
+        R22R23R24E01E02E03E04E05E07E08E09E11E12E13E14E15E18
+        E19E21E24E25E26E27E30E31E33E36  0  0  0  0  0  0  0
++         3  6  3  2  0  3  3  3  4  4  3  3  4  2  4  3  3
++         4  5  4  4  0  4  3  3  2  3  3  3  2  3  5  3  4
++         3  4  3  3  3  5  4  6  4  3  4  5  3  4  6  7  3
++         3  4  8  1  4  2  4  3  3  3  4  3  4  4  3  4  3
++         1  4  4  4  4  4  3  4  3  3  0  0  0  0  0  0  0
%c M  cc GPS ccc cccc cccc cccc cccc ccccc ccccc ccccc ccccc
%c cc cc ccc ccc cccc cccc cccc cccc ccccc ccccc ccccc ccccc
%f  1.2500000  1.025000000  0.00000000000  0.000000000000000
%f  0.0000000  0.000000000  0.00000000000  0.000000000000000
%i    0    0    0    0      0      0      0      0         0
%i    0    0    0    0      0      0      0      0         0
/* -----------------------------------------------------------------------------
/* INSTITUTION  Graz University of Technology (TUG/TU Graz)
/* CONTACT      sebastian.strasser@tugraz.at, mayer-guerr@tugraz.at
/* OUTPUT       TUG GNSS 1-day solution for IGS repro3
/* INPUT        Raw GNSS observations from the IGS repro3 network
/* SOFTWARE     GROOPS (https://github.com/groops-devs/groops)
/* HARDWARE     Intel Xeon & AMD Epyc, Debian Linux, x86_64
/* -----------------------------------------------------------------------------
/* Absolute clock alignment to daily mean of broadcast clocks for each GNSS.
/* Clocks must be used in conjunction with signal biases and satellite attitude
/* from the corresponding bias and attitude files for full consistency.
/* -----------------------------------------------------------------------------
/* This data is licensed under CC0 1.0 (Public Domain).
/* https://creativecommons.org/publicdomain/zero/1.0/
/* If you use this data, please cite:
/* Strasser, S. and Mayer-Guerr, T. (2021). IGS repro3 products by Graz
/* University of Technology (TUG): Satellite orbits.
/* DOI: 10.3217/dataset-7012-6314-1426
/* For background information about the processing refer to:
/* Strasser, S., Mayer-Guerr, T. and Zehentner, N. (2019). Processing of GNSS
/* constellations and ground station networks using the raw observation approach
/* J Geod 93, 1045-1057. DOI: 10.1007/s00190-018-1223-2
/* -----------------------------------------------------------------------------
/* PCV:igsR3_2135 OL/AL:FES2014b AOD1B_R6 YY ORB:CoN CLK:CoN
*  2019 07 18 08 50 00.00000000
PG01 -12992.948148 -13470.440248 -19167.135979    -70.569092             
PG02 -10173.813851  14641.589453  20253.999342   -262.770378             
PG03 -13121.309740 -23128.127681    985.570588    180.437237             
PG05  -1571.719117  20733.249540  16281.689353     -0.030456             
PG06 -23156.087176   6836.655612  11144.097273    146.104774             
PG07 -24462.877713  -7197.925586   8540.192755    -66.731426             
PG08   1795.066484 -22121.721634 -14405.887212   -151.630682             
PG09 -14767.306641  -5072.379794  21446.685495    368.300709             
PG10  16406.582487    -91.693506 -20864.220570    -20.176646             
PG11  -8127.012348 -14478.316887 -21252.954362   -558.294644             
PG12   9876.569667  24706.463615  -1719.178435    222.778355             
PG13 -11650.752243  22657.091619  -7516.026037    -54.067896             
PG14  18500.892372 -17744.562632  -6244.790402    -70.973920             
PG15   1290.295847  22108.776146 -14644.672380   -300.141031             
PG16   3455.533327 -20071.128376  16617.142017    -57.207939             
PG17 -19232.853405  11912.971958 -13438.964032     90.742492             
PG18  -3266.663227 -15432.324155 -21881.087712     70.800919             
PG19 -19537.278022  16064.802333  -8495.958377   -292.659522             
PG20  19998.450494   8182.797588 -15654.425588    526.018139             
PG21  25985.216062   2840.304816   4939.668227   -152.582220             
PG22  -9669.932729 -23934.659715  -6218.077184   -732.591297             
PG23  -6141.514026 -17271.172252  19425.193764   -176.681814             
PG24  10269.858974  14471.522998 -20011.479812    -68.959293             
PG25  17184.877261  17628.136773  10076.515251     -1.745667             
PG26  10346.315280 -12267.851462  21118.255061    254.062630             
PG27  11679.175949 -23423.798898  -3537.209496   -188.272445             
PG28 -15637.987012  -1274.340946 -20811.435980    766.298989             
PG29  11529.096251   9067.682293  22105.518675    148.423713             
PG30 -26557.769322   -225.699023  -2393.989702     -1.416344             
PG31  22528.879848  -7348.397153  12431.423978     23.515984             
PG32  18926.008133 -12528.485127 -13629.257326      1.705003             
PR01  -9635.114707  12138.294285  20261.129007     46.869867             
PR02  -1910.067989  25203.241217   3679.490530    378.885695             
PR03   6304.573644  20788.146199 -13363.083738     -1.499028             
PR04  10843.366548   3661.491125 -22777.163564    314.254025             
PR05   8979.716674 -14389.006684 -19030.201538     32.114249             
PR07  -6553.952457 -20348.087991  13927.301836    -23.586334             
PR08 -10808.254644  -4491.324810  22719.692886     16.703366             
PR09  -5007.030116 -14454.205407  20450.578215     80.717282             
PR10 -17650.605845 -15771.578428   9605.498426     54.644637             
PR11 -22524.498954  -8297.040678  -8691.093776    -73.055470             
PR12 -14292.262519   3061.499219 -20870.930282     44.670106             
PR13   3044.819462  13407.533498 -21496.618139    -26.048671             
PR14  17805.126533  15629.399788  -9412.337528     41.041997             
PR15  22558.395002   8861.623474   7968.918909    103.137121             
PR16  14295.413042  -3486.597290  20847.755613      7.364268             
PR17   6382.197691   8588.676997  23157.929376    244.598817             
PR18  19535.868588  -2608.652910  16167.042527      0.646190             
PR19  22579.949513 -11861.241198    486.096562    -42.806047             
PR20  11458.288528 -14882.283815 -17235.764286   -384.650700             
PR21  -6938.786011  -8162.195584 -23153.800918    -60.487290             
PR22 -20934.594312   4490.661778 -13962.718193    -28.962784             
PR23 -20592.627002  14163.221895   5086.950810    241.414083             
PR24  -9528.885589  14833.689812  18408.676149   -182.736453             
PE01   1946.288728 -18739.811388  22834.809857   -649.529714             
PE02  -1891.960434  18767.385846 -22810.471363     69.829659             
PE03  -8715.990501  28101.434537   3172.558128   -189.532801             
PE04  -4862.617947 -25305.023345  14580.540652   -325.732568             
PE05 -17291.455549  14446.567334  19202.405083   -465.406260             
PE07  15705.688295   7565.247704 -23907.663470   -228.683668             
PE08   5043.885832  25171.374525 -14713.097770   6322.137178             
PE09 -15641.665507  -7400.037527  24029.333540   6375.311797             
PE11 -25345.817608  -2431.560879 -15118.882706   5650.677456             
PE12  -8017.606558 -14537.394809 -24509.865767   6292.499953             
PE13  25258.980469   2355.636456  15247.736638    390.153474             
PE14   9358.417102 -26037.373416  -9109.144968   -647.230113             
PE15   8437.182379  14274.274294  24520.480095    902.781395             
PE18 -19108.439738  20309.089866  -4026.189114   -742.759623             
PE19   9815.623861 -27464.464937  -5041.278714     -5.086056             
PE21  18644.010537  -3251.248714  22756.541288   -544.753298             
PE24 -24269.743973 -14046.108382  -9474.579025   5971.091604             
PE25 -18701.662654   3165.805892 -22720.774833   1738.990597             
PE26  27384.242289 -10823.198372  -3051.825641   4327.228740             
PE27  24316.729620  14117.778619   9244.437397    426.697019             
PE30  15683.280813  23241.592555  -9494.985170   4701.500418             
PE31 -15700.197510 -23165.957671   9673.267788   -466.566404             
PE33  13365.355308 -17859.467250 -19453.970861   -469.821800             
PE36 -27327.694497  10979.436331   2991.042183    686.079417             
EOF
